STARLINK-33773          
1 63713U 25087S   26182.34822740  .00047183  00000+0  15193-2 0  9994
2 63713  53.1593  50.7436 0000497 301.4760  58.6193 15.31770212 66614
STARLINK-33745          
1 63714U 25087T   26182.34413163  .00045213  00000+0  15268-2 0  9995
2 63714  53.1591  51.4273 0001216  91.6397 268.4743 15.30254747 66604
STARLINK-33728          
1 63715U 25087U   26182.35151865  .00025820  00000+0  88098-3 0  9999
2 63715  53.1601  51.4711 0001454  92.7390 267.3777 15.30196040 66609
STARLINK-33749          
1 63716U 25087V   26181.99873794  .00042773  00000+0  13800-2 0  9995
2 63716  53.1581  52.8277 0001128  76.6066 283.5061 15.31750136 66551
STARLINK-33725          
1 63717U 25087W   26182.35469637  .00025688  00000+0  87664-3 0  9990
2 63717  53.1597  51.4903 0001202  99.6291 260.4846 15.30192016 66605
STARLINK-33641          
1 63718U 25087X   26182.63257325  .00027346  00000+0  88833-3 0  9993
2 63718  53.1556  49.6699 0002573  91.2593 268.8703 15.31749695 66658
STARLINK-33727          
1 63719U 25087Y   26182.61535453  .00027340  00000+0  81667-3 0  9995
2 63719  53.1579  48.1538 0002138  86.2761 273.8486 15.34426085 66672
STARLINK-33757          
1 63720U 25087Z   26182.62649579  .00030179  00000+0  10264-2 0  9991
2 63720  53.1595  50.3417 0001689  84.7043 275.4150 15.30217274 66646
STARLINK-33774          
1 63721U 25087AA  26181.98938005  .00028397  00000+0  92141-3 0  9999
2 63721  53.1579  52.7706 0000807  87.1023 273.0071 15.31767640 66556
STARLINK-33767          
1 63722U 25087AB  26182.61383147  .00026990  00000+0  91928-3 0  9991
2 63722  53.1594  50.2639 0001525  93.6665 266.4510 15.30228610 66646
STARLINK-33806          
1 63723U 25087AC  26182.35890345  .00037840  00000+0  12819-2 0  9993
2 63723  53.1606  51.5170 0001182  91.5038 268.6098 15.30233923 66609
STARLINK-11677 [DTC]    
1 63751U 25089A   26182.13274248  .00273593  00000+0  20596-2 0  9998
2 63751  43.0001 328.7637 0000784 317.7053  42.3754 15.70916159 67971
STARLINK-11702 [DTC]    
1 63752U 25089B   26181.47036161  .00110004  00000+0  84930-3 0  9995
2 63752  43.0000 332.3807 0001639 278.9612  81.1070 15.70844835 67872
STARLINK-11706 [DTC]    
1 63753U 25089C   26182.53533680  .00006793  00000+0  56364-4 0  9992
2 63753  43.0004 325.7364 0002337 254.7584 105.3026 15.70853702 68040
STARLINK-11662 [DTC]    
1 63754U 25089D   26182.11681861  .00107360  00000+0  82751-3 0  9992
2 63754  42.9992 328.6341 0001030  27.2808 332.8113 15.70894893 68021
STARLINK-11681 [DTC]    
1 63755U 25089E   26181.80950562  .00189701  00000+0  14465-2 0  9990
2 63755  42.9999 330.6357 0002884 242.5622 117.4953 15.70869497 67922
STARLINK-11688 [DTC]    
1 63756U 25089F   26182.11151344  .00251562  00000+0  19000-2 0  9992
2 63756  42.9998 328.5909 0000895  23.1324 336.9584 15.70905073 67865
STARLINK-11676 [DTC]    
1 63757U 25089G   26182.58335648 -.00140783  00000+0 -11093-2 0  9993
2 63757  43.0002 325.2992 0001607 270.6760  61.3670 15.70902840  5984
STARLINK-11705 [DTC]    
1 63758U 25089H   26181.86778523  .00179914  00000+0  13744-2 0  9998
2 63758  42.9990 330.2074 0001480 270.4914  89.5784 15.70857967 67888
STARLINK-11703 [DTC]    
1 63759U 25089J   26182.58335648 -.00103869  00000+0 -81465-3 0  9990
2 63759  42.9999 325.5979 0001539 271.1428 300.6646 15.70882166  5977
STARLINK-11701 [DTC]    
1 63760U 25089K   26181.83062877  .00341316  00000+0  25554-2 0  9995
2 63760  43.0018 329.9072 0001017   1.9770 358.1102 15.70842693 67935
STARLINK-11660 [DTC]    
1 63761U 25089L   26182.60423619  .00167763  00000+0  12778-2 0  9993
2 63761  42.9982 325.3949 0002046 250.2481 109.8166 15.70967429 68003
STARLINK-11699 [DTC]    
1 63762U 25089M   26182.51954083  .00169205  00000+0  12958-2 0  9991
2 63762  42.9991 326.5024 0001082 269.1984  90.8760 15.70835144 68037
STARLINK-11693 [DTC]    
1 63763U 25089N   26182.10179243  .00196173  00000+0  14923-2 0  9992
2 63763  42.9974 328.5073 0002069 298.6026  61.4633 15.70906898 67863
STARLINK-33760          
1 63764U 25089P   26182.11865870 -.00007051  00000+0 -24697-3 0  9990
2 63764  43.0012 124.7696 0001579 240.4327 119.6367 15.27574404 66304
STARLINK-33941          
1 63765U 25089Q   26182.12126013  .00020296  00000+0  74460-3 0  9998
2 63765  43.0002 124.7875 0000656 224.0367 136.0432 15.27598518 66296
STARLINK-33824          
1 63766U 25089R   26182.13794564  .00018074  00000+0  66434-3 0  9995
2 63766  42.9988 124.9158 0000505 222.0031 138.0782 15.27598600 66307
STARLINK-33808          
1 63767U 25089S   26182.10968034  .00020456  00000+0  75053-3 0  9992
2 63767  43.0012 124.6998 0000306 196.8449 163.2393 15.27592179 66300
STARLINK-33844          
1 63768U 25089T   26181.82885949  .00022041  00000+0  80760-3 0  9997
2 63768  43.0036 126.0355 0002016 265.1904  94.8717 15.27599530 66268
STARLINK-33907          
1 63769U 25089U   26182.11481678  .00018157  00000+0  66751-3 0  9999
2 63769  43.0011 124.7380 0001524 270.0946  89.9730 15.27590697 66253
