OBJECT_NAME,OBJECT_ID,EPOCH,MEAN_MOTION,ECCENTRICITY,INCLINATION,RA_OF_ASC_NODE,ARG_OF_PERICENTER,MEAN_ANOMALY,EPHEMERIS_TYPE,CLASSIFICATION_TYPE,NORAD_CAT_ID,ELEMENT_SET_NO,REV_AT_EPOCH,BSTAR,MEAN_MOTION_DOT,MEAN_MOTION_DDOT
STARLINK-33773,2025-087S,2026-07-01T08:21:26.847360,15.31770212,.00004974,53.1593,50.7436,301.4760,58.6193,0,U,63713,999,6661,.15192952E-2,.47183E-3,0
STARLINK-33745,2025-087T,2026-07-01T08:15:32.972832,15.30254747,.0001216,53.1591,51.4273,91.6397,268.4743,0,U,63714,999,6660,.15267974E-2,.45213E-3,0
STARLINK-33728,2025-087U,2026-07-01T08:26:11.211360,15.30196040,.00014545,53.1601,51.4711,92.7390,267.3777,0,U,63715,999,6660,.88097975E-3,.2582E-3,0
STARLINK-33749,2025-087V,2026-06-30T23:58:10.958016,15.31750136,.00011282,53.1581,52.8277,76.6066,283.5061,0,U,63716,999,6655,.1380049E-2,.42773E-3,0
STARLINK-33725,2025-087W,2026-07-01T08:30:45.766368,15.30192016,.00012024,53.1597,51.4903,99.6291,260.4846,0,U,63717,999,6660,.87664214E-3,.25688E-3,0
STARLINK-33641,2025-087X,2026-07-01T15:10:54.328800,15.31749695,.00025732,53.1556,49.6699,91.2593,268.8703,0,U,63718,999,6665,.888327E-3,.27346E-3,0
STARLINK-33727,2025-087Y,2026-07-01T14:46:06.631392,15.34426085,.00021389,53.1579,48.1538,86.2761,273.8486,0,U,63719,999,6667,.81667069E-3,.2734E-3,0
STARLINK-33757,2025-087Z,2026-07-01T15:02:09.236256,15.30217274,.00016891,53.1595,50.3417,84.7043,275.4150,0,U,63720,999,6664,.1026381E-2,.30179E-3,0
STARLINK-33774,2025-087AA,2026-06-30T23:44:42.436320,15.31767640,.00008072,53.1579,52.7706,87.1023,273.0071,0,U,63721,999,6655,.92140822E-3,.28397E-3,0
STARLINK-33767,2025-087AB,2026-07-01T14:43:55.039008,15.30228610,.00015252,53.1594,50.2639,93.6665,266.4510,0,U,63722,999,6664,.91927586E-3,.2699E-3,0
STARLINK-33806,2025-087AC,2026-07-01T08:36:49.258080,15.30233923,.00011824,53.1606,51.5170,91.5038,268.6098,0,U,63723,999,6660,.12818949E-2,.3784E-3,0
STARLINK-11677 [DTC],2025-089A,2026-07-01T03:11:08.950272,15.70916159,.00007843,43.0001,328.7637,317.7053,42.3754,0,U,63751,999,6797,.20596225E-2,.273593E-2,0
STARLINK-11702 [DTC],2025-089B,2026-06-30T11:17:19.243104,15.70844835,.00016398,43.0000,332.3807,278.9612,81.1070,0,U,63752,999,6787,.84930306E-3,.110004E-2,0
STARLINK-11706 [DTC],2025-089C,2026-07-01T12:50:53.099520,15.70853702,.00023378,43.0004,325.7364,254.7584,105.3026,0,U,63753,999,6804,.56363587E-4,.6793E-4,0
STARLINK-11662 [DTC],2025-089D,2026-07-01T02:48:13.127904,15.70894893,.00010302,42.9992,328.6341,27.2808,332.8113,0,U,63754,999,6802,.82751475E-3,.10736E-2,0
STARLINK-11681 [DTC],2025-089E,2026-06-30T19:25:41.285568,15.70869497,.00028841,42.9999,330.6357,242.5622,117.4953,0,U,63755,999,6792,.1446473E-2,.189701E-2,0
STARLINK-11688 [DTC],2025-089F,2026-07-01T02:40:34.761216,15.70905073,.00008958,42.9998,328.5909,23.1324,336.9584,0,U,63756,999,6786,.1900023E-2,.251562E-2,0
STARLINK-11676 [DTC],2025-089G,2026-07-01T14:00:01.999872,15.70902840,.00016075,43.0002,325.2992,270.6760,61.3670,0,U,63757,999,598,-.11093328E-2,-.140783E-2,0
STARLINK-11705 [DTC],2025-089H,2026-06-30T20:49:36.643872,15.70857967,.000148,42.9990,330.2074,270.4914,89.5784,0,U,63758,999,6788,.13744E-2,.179914E-2,0
STARLINK-11703 [DTC],2025-089J,2026-07-01T14:00:01.999872,15.70882166,.00015396,42.9999,325.5979,271.1428,300.6646,0,U,63759,999,597,-.81464804E-3,-.103869E-2,0
STARLINK-11701 [DTC],2025-089K,2026-06-30T19:56:06.325728,15.70842693,.00010171,43.0018,329.9072,1.9770,358.1102,0,U,63760,999,6793,.25553673E-2,.341316E-2,0
STARLINK-11660 [DTC],2025-089L,2026-07-01T14:30:06.006816,15.70967429,.00020463,42.9982,325.3949,250.2481,109.8166,0,U,63761,999,6800,.12778063E-2,.167763E-2,0
STARLINK-11699 [DTC],2025-089M,2026-07-01T12:28:08.327712,15.70835144,.00010826,42.9991,326.5024,269.1984,90.8760,0,U,63762,999,6803,.12957503E-2,.169205E-2,0
STARLINK-11693 [DTC],2025-089N,2026-07-01T02:26:34.865952,15.70906898,.00020698,42.9974,328.5073,298.6026,61.4633,0,U,63763,999,6786,.14922807E-2,.196173E-2,0
STARLINK-33760,2025-089P,2026-07-01T02:50:52.111680,15.27574404,.00015791,43.0012,124.7696,240.4327,119.6367,0,U,63764,999,6630,-.24697205E-3,-.7051E-4,0
STARLINK-33941,2025-089Q,2026-07-01T02:54:36.875232,15.27598518,.00006563,43.0002,124.7875,224.0367,136.0432,0,U,63765,999,6629,.74459703E-3,.20296E-3,0
STARLINK-33824,2025-089R,2026-07-01T03:18:38.503296,15.27598600,.00005053,42.9988,124.9158,222.0031,138.0782,0,U,63766,999,6630,.6643392E-3,.18074E-3,0
STARLINK-33808,2025-089S,2026-07-01T02:37:56.381376,15.27592179,.00003064,43.0012,124.6998,196.8449,163.2393,0,U,63767,999,6630,.75053416E-3,.20456E-3,0
STARLINK-33844,2025-089T,2026-06-30T19:53:33.459936,15.27599530,.00020167,43.0036,126.0355,265.1904,94.8717,0,U,63768,999,6626,.80759507E-3,.22041E-3,0
STARLINK-33907,2025-089U,2026-07-01T02:45:20.169792,15.27590697,.00015247,43.0011,124.7380,270.0946,89.9730,0,U,63769,999,6625,.66750558E-3,.18157E-3,0
